<?xml version="1.0" encoding="UTF-8"?>
<ndm xmlns:xsi="http://www.w3.org/2001/XMLSchema-instance" xsi:noNamespaceSchemaLocation="https://sanaregistry.org/r/ndmxml_unqualified/ndmxml-2.0.0-master-2.0.xsd">
<omm id="CCSDS_OMM_VERS" version="2.0">
<header><CREATION_DATE/><ORIGINATOR/></header><body><segment><metadata><OBJECT_NAME>GLOBALSTAR M001 [-]</OBJECT_NAME><OBJECT_ID>1998-008A</OBJECT_ID><CENTER_NAME>EARTH</CENTER_NAME><REF_FRAME>TEME</REF_FRAME><TIME_SYSTEM>UTC</TIME_SYSTEM><MEAN_ELEMENT_THEORY>SGP4</MEAN_ELEMENT_THEORY></metadata><data><meanElements><EPOCH>2023-11-08T01:46:22.229760</EPOCH><MEAN_MOTION>12.38171702</MEAN_MOTION><ECCENTRICITY>.0002241</ECCENTRICITY><INCLINATION>52.0033</INCLINATION><RA_OF_ASC_NODE>242.0030</RA_OF_ASC_NODE><ARG_OF_PERICENTER>81.0358</ARG_OF_PERICENTER><MEAN_ANOMALY>292.1876</MEAN_ANOMALY></meanElements><tleParameters><EPHEMERIS_TYPE>0</EPHEMERIS_TYPE><CLASSIFICATION_TYPE>U</CLASSIFICATION_TYPE><NORAD_CAT_ID>25162</NORAD_CAT_ID><ELEMENT_SET_NO>999</ELEMENT_SET_NO><REV_AT_EPOCH>17098</REV_AT_EPOCH><BSTAR>.68161E-3</BSTAR><MEAN_MOTION_DOT>-.8E-7</MEAN_MOTION_DOT><MEAN_MOTION_DDOT>0</MEAN_MOTION_DDOT></tleParameters></data></segment></body></omm>
<omm id="CCSDS_OMM_VERS" version="2.0">
<header><CREATION_DATE/><ORIGINATOR/></header><body><segment><metadata><OBJECT_NAME>GLOBALSTAR M004 [-]</OBJECT_NAME><OBJECT_ID>1998-008B</OBJECT_ID><CENTER_NAME>EARTH</CENTER_NAME><REF_FRAME>TEME</REF_FRAME><TIME_SYSTEM>UTC</TIME_SYSTEM><MEAN_ELEMENT_THEORY>SGP4</MEAN_ELEMENT_THEORY></metadata><data><meanElements><EPOCH>2023-11-08T10:35:53.864160</EPOCH><MEAN_MOTION>12.63341596</MEAN_MOTION><ECCENTRICITY>.0003487</ECCENTRICITY><INCLINATION>52.0012</INCLINATION><RA_OF_ASC_NODE>44.0975</RA_OF_ASC_NODE><ARG_OF_PERICENTER>75.6979</ARG_OF_PERICENTER><MEAN_ANOMALY>4.0543</MEAN_ANOMALY></meanElements><tleParameters><EPHEMERIS_TYPE>0</EPHEMERIS_TYPE><CLASSIFICATION_TYPE>U</CLASSIFICATION_TYPE><NORAD_CAT_ID>25163</NORAD_CAT_ID><ELEMENT_SET_NO>999</ELEMENT_SET_NO><REV_AT_EPOCH>18752</REV_AT_EPOCH><BSTAR>.21593E-3</BSTAR><MEAN_MOTION_DOT>-.65E-6</MEAN_MOTION_DOT><MEAN_MOTION_DDOT>0</MEAN_MOTION_DDOT></tleParameters></data></segment></body></omm>
<omm id="CCSDS_OMM_VERS" version="2.0">
<header><CREATION_DATE/><ORIGINATOR/></header><body><segment><metadata><OBJECT_NAME>GLOBALSTAR M002 [-]</OBJECT_NAME><OBJECT_ID>1998-008C</OBJECT_ID><CENTER_NAME>EARTH</CENTER_NAME><REF_FRAME>TEME</REF_FRAME><TIME_SYSTEM>UTC</TIME_SYSTEM><MEAN_ELEMENT_THEORY>SGP4</MEAN_ELEMENT_THEORY></metadata><data><meanElements><EPOCH>2023-11-08T06:01:11.849376</EPOCH><MEAN_MOTION>11.61497014</MEAN_MOTION><ECCENTRICITY>.0001286</ECCENTRICITY><INCLINATION>52.0016</INCLINATION><RA_OF_ASC_NODE>271.8317</RA_OF_ASC_NODE><ARG_OF_PERICENTER>122.7910</ARG_OF_PERICENTER><MEAN_ANOMALY>237.3034</MEAN_ANOMALY></meanElements><tleParameters><EPHEMERIS_TYPE>0</EPHEMERIS_TYPE><CLASSIFICATION_TYPE>U</CLASSIFICATION_TYPE><NORAD_CAT_ID>25164</NORAD_CAT_ID><ELEMENT_SET_NO>999</ELEMENT_SET_NO><REV_AT_EPOCH>11586</REV_AT_EPOCH><BSTAR>.30078E-3</BSTAR><MEAN_MOTION_DOT>-.61E-6</MEAN_MOTION_DOT><MEAN_MOTION_DDOT>0</MEAN_MOTION_DDOT></tleParameters></data></segment></body></omm>
<omm id="CCSDS_OMM_VERS" version="2.0">
<header><CREATION_DATE/><ORIGINATOR/></header><body><segment><metadata><OBJECT_NAME>GLOBALSTAR M003 [-]</OBJECT_NAME><OBJECT_ID>1998-008D</OBJECT_ID><CENTER_NAME>EARTH</CENTER_NAME><REF_FRAME>TEME</REF_FRAME><TIME_SYSTEM>UTC</TIME_SYSTEM><MEAN_ELEMENT_THEORY>SGP4</MEAN_ELEMENT_THEORY></metadata><data><meanElements><EPOCH>2023-11-08T21:02:30.816384</EPOCH><MEAN_MOTION>12.11951461</MEAN_MOTION><ECCENTRICITY>.0008041</ECCENTRICITY><INCLINATION>51.9791</INCLINATION><RA_OF_ASC_NODE>352.4701</RA_OF_ASC_NODE><ARG_OF_PERICENTER>190.9614</ARG_OF_PERICENTER><MEAN_ANOMALY>340.2815</MEAN_ANOMALY></meanElements><tleParameters><EPHEMERIS_TYPE>0</EPHEMERIS_TYPE><CLASSIFICATION_TYPE>U</CLASSIFICATION_TYPE><NORAD_CAT_ID>25165</NORAD_CAT_ID><ELEMENT_SET_NO>999</ELEMENT_SET_NO><REV_AT_EPOCH>16212</REV_AT_EPOCH><BSTAR>.15627E-2</BSTAR><MEAN_MOTION_DOT>.57E-6</MEAN_MOTION_DOT><MEAN_MOTION_DDOT>0</MEAN_MOTION_DDOT></tleParameters></data></segment></body></omm>
<omm id="CCSDS_OMM_VERS" version="2.0">
<header><CREATION_DATE/><ORIGINATOR/></header><body><segment><metadata><OBJECT_NAME>GLOBALSTAR M014 [-]</OBJECT_NAME><OBJECT_ID>1998-023A</OBJECT_ID><CENTER_NAME>EARTH</CENTER_NAME><REF_FRAME>TEME</REF_FRAME><TIME_SYSTEM>UTC</TIME_SYSTEM><MEAN_ELEMENT_THEORY>SGP4</MEAN_ELEMENT_THEORY></metadata><data><meanElements><EPOCH>2023-11-08T22:15:56.614176</EPOCH><MEAN_MOTION>11.65461736</MEAN_MOTION><ECCENTRICITY>.0001558</ECCENTRICITY><INCLINATION>51.9827</INCLINATION><RA_OF_ASC_NODE>205.6826</RA_OF_ASC_NODE><ARG_OF_PERICENTER>36.6924</ARG_OF_PERICENTER><MEAN_ANOMALY>46.4811</MEAN_ANOMALY></meanElements><tleParameters><EPHEMERIS_TYPE>0</EPHEMERIS_TYPE><CLASSIFICATION_TYPE>U</CLASSIFICATION_TYPE><NORAD_CAT_ID>25306</NORAD_CAT_ID><ELEMENT_SET_NO>999</ELEMENT_SET_NO><REV_AT_EPOCH>12281</REV_AT_EPOCH><BSTAR>.81388E-4</BSTAR><MEAN_MOTION_DOT>-.73E-6</MEAN_MOTION_DOT><MEAN_MOTION_DDOT>0</MEAN_MOTION_DDOT></tleParameters></data></segment></body></omm>
<omm id="CCSDS_OMM_VERS" version="2.0">
<header><CREATION_DATE/><ORIGINATOR/></header><body><segment><metadata><OBJECT_NAME>GLOBALSTAR M006 [-]</OBJECT_NAME><OBJECT_ID>1998-023B</OBJECT_ID><CENTER_NAME>EARTH</CENTER_NAME><REF_FRAME>TEME</REF_FRAME><TIME_SYSTEM>UTC</TIME_SYSTEM><MEAN_ELEMENT_THEORY>SGP4</MEAN_ELEMENT_THEORY></metadata><data><meanElements><EPOCH>2023-11-08T22:37:39.120096</EPOCH><MEAN_MOTION>11.58156607</MEAN_MOTION><ECCENTRICITY>.0003793</ECCENTRICITY><INCLINATION>51.9935</INCLINATION><RA_OF_ASC_NODE>236.2067</RA_OF_ASC_NODE><ARG_OF_PERICENTER>121.9758</ARG_OF_PERICENTER><MEAN_ANOMALY>315.6275</MEAN_ANOMALY></meanElements><tleParameters><EPHEMERIS_TYPE>0</EPHEMERIS_TYPE><CLASSIFICATION_TYPE>U</CLASSIFICATION_TYPE><NORAD_CAT_ID>25307</NORAD_CAT_ID><ELEMENT_SET_NO>999</ELEMENT_SET_NO><REV_AT_EPOCH>14890</REV_AT_EPOCH><BSTAR>.34602E-3</BSTAR><MEAN_MOTION_DOT>-.59E-6</MEAN_MOTION_DOT><MEAN_MOTION_DDOT>0</MEAN_MOTION_DDOT></tleParameters></data></segment></body></omm>
<omm id="CCSDS_OMM_VERS" version="2.0">
<header><CREATION_DATE/><ORIGINATOR/></header><body><segment><metadata><OBJECT_NAME>GLOBALSTAR M015 [-]</OBJECT_NAME><OBJECT_ID>1998-023C</OBJECT_ID><CENTER_NAME>EARTH</CENTER_NAME><REF_FRAME>TEME</REF_FRAME><TIME_SYSTEM>UTC</TIME_SYSTEM><MEAN_ELEMENT_THEORY>SGP4</MEAN_ELEMENT_THEORY></metadata><data><meanElements><EPOCH>2023-11-08T17:51:19.096992</EPOCH><MEAN_MOTION>11.48857581</MEAN_MOTION><ECCENTRICITY>.0012434</ECCENTRICITY><INCLINATION>51.9832</INCLINATION><RA_OF_ASC_NODE>308.3042</RA_OF_ASC_NODE><ARG_OF_PERICENTER>111.5791</ARG_OF_PERICENTER><MEAN_ANOMALY>58.9032</MEAN_ANOMALY></meanElements><tleParameters><EPHEMERIS_TYPE>0</EPHEMERIS_TYPE><CLASSIFICATION_TYPE>U</CLASSIFICATION_TYPE><NORAD_CAT_ID>25308</NORAD_CAT_ID><ELEMENT_SET_NO>999</ELEMENT_SET_NO><REV_AT_EPOCH>12667</REV_AT_EPOCH><BSTAR>.14074E-2</BSTAR><MEAN_MOTION_DOT>-.12E-6</MEAN_MOTION_DOT><MEAN_MOTION_DDOT>0</MEAN_MOTION_DDOT></tleParameters></data></segment></body></omm>
<omm id="CCSDS_OMM_VERS" version="2.0">
<header><CREATION_DATE/><ORIGINATOR/></header><body><segment><metadata><OBJECT_NAME>GLOBALSTAR M008 [-]</OBJECT_NAME><OBJECT_ID>1998-023D</OBJECT_ID><CENTER_NAME>EARTH</CENTER_NAME><REF_FRAME>TEME</REF_FRAME><TIME_SYSTEM>UTC</TIME_SYSTEM><MEAN_ELEMENT_THEORY>SGP4</MEAN_ELEMENT_THEORY></metadata><data><meanElements><EPOCH>2023-11-08T17:05:02.359104</EPOCH><MEAN_MOTION>12.36031180</MEAN_MOTION><ECCENTRICITY>.0002779</ECCENTRICITY><INCLINATION>51.9954</INCLINATION><RA_OF_ASC_NODE>98.3345</RA_OF_ASC_NODE><ARG_OF_PERICENTER>39.3106</ARG_OF_PERICENTER><MEAN_ANOMALY>333.3298</MEAN_ANOMALY></meanElements><tleParameters><EPHEMERIS_TYPE>0</EPHEMERIS_TYPE><CLASSIFICATION_TYPE>U</CLASSIFICATION_TYPE><NORAD_CAT_ID>25309</NORAD_CAT_ID><ELEMENT_SET_NO>999</ELEMENT_SET_NO><REV_AT_EPOCH>16532</REV_AT_EPOCH><BSTAR>.44297E-3</BSTAR><MEAN_MOTION_DOT>-.4E-6</MEAN_MOTION_DOT><MEAN_MOTION_DDOT>0</MEAN_MOTION_DDOT></tleParameters></data></segment></body></omm>

</ndm>
