GLOBALSTAR M001 [-]     
1 25162U 98008A   23312.07386840 -.00000008  00000+0  68161-3 0  9991
2 25162  52.0033 242.0030 0002241  81.0358 292.1876 12.38171702170988
GLOBALSTAR M004 [-]     
1 25163U 98008B   23312.44159565 -.00000065  00000+0  21593-3 0  9996
2 25163  52.0012  44.0975 0003487  75.6979   4.0543 12.63341596187522
GLOBALSTAR M002 [-]     
1 25164U 98008C   23312.25083159 -.00000061  00000+0  30078-3 0  9995
2 25164  52.0016 271.8317 0001286 122.7910 237.3034 11.61497014115869
GLOBALSTAR M003 [-]     
1 25165U 98008D   23312.87674556  .00000057  00000+0  15627-2 0  9997
2 25165  51.9791 352.4701 0008041 190.9614 340.2815 12.11951461162124
GLOBALSTAR M014 [-]     
1 25306U 98023A   23312.92773859 -.00000073  00000+0  81388-4 0  9991
2 25306  51.9827 205.6826 0001558  36.6924  46.4811 11.65461736122816
GLOBALSTAR M006 [-]     
1 25307U 98023B   23312.94281389 -.00000059  00000+0  34602-3 0  9996
2 25307  51.9935 236.2067 0003793 121.9758 315.6275 11.58156607148903
GLOBALSTAR M015 [-]     
1 25308U 98023C   23312.74397103 -.00000012  00000+0  14074-2 0  9996
2 25308  51.9832 308.3042 0012434 111.5791  58.9032 11.48857581126674
GLOBALSTAR M008 [-]     
1 25309U 98023D   23312.71183286 -.00000040  00000+0  44297-3 0  9991
2 25309  51.9954  98.3345 0002779  39.3106 333.3298 12.36031180165326
